NORAD_CAT_ID,OBJECT_NAME,OBJECT_TYPE,EPOCH,MEAN_MOTION,ECCENTRICITY,INCLINATION,RA_OF_ASC_NODE,ARG_OF_PERICENTER,MEAN_ANOMALY,BSTAR,MEAN_MOTION_DOT,MEAN_MOTION_DDOT,TLE_LINE0,TLE_LINE1,TLE_LINE2,SEMIMAJOR_AXIS,PERIOD,APOGEE,PERIGEE,DECAYED
51125.0,STARLINK-3387,PAYLOAD,2024-02-17 01:23:55,15.08833287,0.0001478,53.2182,73.3327,100.8876,259.2282,0.00010235,1.341e-05,0.0,0 STARLINK-3387,1 51125U 22005X   24048.05827899  .00001341  00000-0  10235-3 0  9992,2 51125  53.2182  73.3327 0001478 100.8876 259.2282 15.08833287116375,6917.901,95.438,540.788,538.743,0.0
51125.0,STARLINK-3387,PAYLOAD,2024-02-17 07:45:27,15.08834915,0.0001545,53.2186,72.1437,92.0157,268.1013,0.00010766,1.426e-05,0.0,0 STARLINK-3387,1 51125U 22005X   24048.32324058  .00001426  00000-0  10766-3 0  9994,2 51125  53.2186  72.1437 0001545  92.0157 268.1013 15.08834915115297,6917.896,95.438,540.83,538.692,0.0
51125.0,STARLINK-3387,PAYLOAD,2024-02-17 18:53:09,15.08842805,0.0001545,53.2183,70.0619,90.8186,269.2984,0.00017394,2.482e-05,0.0,0 STARLINK-3387,1 51125U 22005X   24048.78691766  .00002482  00000-0  17394-3 0  9994,2 51125  53.2183  70.0619 0001545  90.8186 269.2984 15.08842805115365,6917.872,95.437,540.806,538.668,0.0
51125.0,STARLINK-3387,PAYLOAD,2024-02-18 10:47:00,15.08861659,0.0001698,53.2178,67.0867,97.8983,262.2202,0.00051317,7.893e-05,0.0,0 STARLINK-3387,1 51125U 22005X   24049.44930885  .00007893  00000-0  51317-3 0  9990,2 51125  53.2178  67.0867 0001698  97.8983 262.2202 15.08861659116580,6917.814,95.436,540.854,538.505,0.0
51125.0,STARLINK-3387,PAYLOAD,2024-02-18 18:43:57,15.08821343,0.0001889,53.2186,65.6006,89.7915,270.3294,-0.00021386,-3.688e-05,0.0,0 STARLINK-3387,1 51125U 22005X   24049.78052752 -.00003688  00000-0 -21386-3 0  9998,2 51125  53.2186  65.6006 0001889  89.7915 270.3294 15.08821343116638,6917.937,95.439,541.109,538.496,0.0
51125.0,STARLINK-3387,PAYLOAD,2024-02-19 07:27:03,15.0881815,0.0001082,53.2184,63.222,87.6644,272.4472,-0.00014472,-2.589e-05,0.0,0 STARLINK-3387,1 51125U 22005X   24050.31045532 -.00002589  00000-0 -14472-3 0  9994,2 51125  53.2184  63.2220 0001082  87.6644 272.4472 15.08818150115596,6917.947,95.439,540.561,539.064,0.0
51125.0,STARLINK-3387,PAYLOAD,2024-02-20 04:07:03,15.08855687,0.0001289,53.2179,59.3549,97.156,262.9579,0.00076658,0.00011938,0.0,0 STARLINK-3387,1 51125U 22005X   24051.17156672  .00011938  00000-0  76658-3 0  9997,2 51125  53.2179  59.3549 0001289  97.1560 262.9579 15.08855687116849,6917.832,95.437,540.589,538.806,0.0
51125.0,STARLINK-3387,PAYLOAD,2024-02-20 07:17:49,15.08866114,0.0001332,53.2171,58.762,95.0308,265.0836,0.0013785,0.00021735,0.0,0 STARLINK-3387,1 51125U 22005X   24051.30404749  .00021735  00000-0  13785-2 0  9990,2 51125  53.2171  58.7620 0001332  95.0308 265.0836 15.08866114115745,6917.801,95.436,540.587,538.744,0.0
51125.0,STARLINK-3387,PAYLOAD,2024-02-20 16:50:07,15.08870409,0.0001382,53.218,56.9775,93.5314,266.5836,0.0004968,7.634e-05,0.0,0 STARLINK-3387,1 51125U 22005X   24051.70148001  .00007634  00000-0  49680-3 0  9996,2 51125  53.2180  56.9775 0001382  93.5314 266.5836 15.08870409115806,6917.787,95.436,540.608,538.696,0.0
51125.0,STARLINK-3387,PAYLOAD,2024-02-21 03:57:49,15.08854831,0.0001447,53.2196,54.8982,89.8858,270.23,0.00022262,3.258e-05,0.0,0 STARLINK-3387,1 51125U 22005X   24052.16515977  .00003258  00000-0  22262-3 0  9992,2 51125  53.2196  54.8982 0001447  89.8858 270.2300 15.08854831116993,6917.835,95.437,540.701,538.699,0.0
51125.0,STARLINK-3387,PAYLOAD,2024-02-21 10:19:22,15.08855273,0.0001446,53.2183,53.7072,77.0103,283.105,0.0013811,0.0002177,0.0,0 STARLINK-3387,1 51125U 22005X   24052.43011932  .00021770  00000-0  13811-2 0  9992,2 51125  53.2183  53.7072 0001446  77.0103 283.1050 15.08855273115915,6917.834,95.437,540.699,538.698,0.0
51125.0,STARLINK-3387,PAYLOAD,2024-02-21 16:40:54,15.08844542,0.0001259,53.2168,52.5175,77.0009,283.1124,0.00043933,6.712e-05,0.0,0 STARLINK-3387,1 51125U 22005X   24052.69508031  .00006712  00000-0  43933-3 0  9999,2 51125  53.2168  52.5175 0001259  77.0009 283.1124 15.08844542117074,6917.867,95.437,540.602,538.861,0.0
51125.0,STARLINK-3387,PAYLOAD,2024-02-22 06:59:22,15.08848402,0.0001452,53.2181,49.8428,95.0574,265.0584,1.7392e-05,-1.1e-07,0.0,0 STARLINK-3387,1 51125U 22005X   24053.29123799 -.00000011  00000-0  17392-4 0  9998,2 51125  53.2181  49.8428 0001452  95.0574 265.0584 15.08848402116045,6917.855,95.437,540.724,538.715,0.0
51125.0,STARLINK-3387,PAYLOAD,2024-02-22 16:31:41,15.08846208,0.0001343,53.217,48.0566,96.1714,263.9431,5.9547e-05,6.6e-06,0.0,0 STARLINK-3387,1 51125U 22005X   24053.68867780  .00000660  00000-0  59547-4 0  9993,2 51125  53.2170  48.0566 0001343  96.1714 263.9431 15.08846208117225,6917.861,95.437,540.655,538.797,0.0
51125.0,STARLINK-3387,PAYLOAD,2024-02-23 06:50:10,15.08845884,0.000138,53.2169,45.3806,93.6228,266.4922,0.00014905,2.085e-05,0.0,0 STARLINK-3387,1 51125U 22005X   24054.28483812  .00002085  00000-0  14905-3 0  9991,2 51125  53.2169  45.3806 0001380  93.6228 266.4922 15.08845884116190,6917.862,95.437,540.682,538.773,0.0
51125.0,STARLINK-3387,PAYLOAD,2024-02-23 22:44:01,15.088396,8.53e-05,53.2179,42.4096,91.503,268.606,0.00019032,2.742e-05,0.0,0 STARLINK-3387,1 51125U 22005X   24054.94724030  .00002742  00000-0  19032-3 0  9990,2 51125  53.2179  42.4096 0000853  91.5030 268.6060 15.08839600116299,6917.882,95.438,540.337,539.157,0.0
51125.0,STARLINK-3387,PAYLOAD,2024-02-24 03:30:11,15.08835584,0.0001782,53.2189,41.5168,87.8122,272.3074,-1.6149e-05,-5.45e-06,0.0,0 STARLINK-3387,1 51125U 22005X   24055.14596410 -.00000545  00000-0 -16149-4 0  9990,2 51125  53.2189  41.5168 0001782  87.8122 272.3074 15.08835584117444,6917.894,95.438,540.992,538.526,0.0
51125.0,STARLINK-3387,PAYLOAD,2024-02-24 06:40:57,15.08837363,0.0001667,53.219,40.922,88.5519,271.5664,-1.66e-06,-3.14e-06,0.0,0 STARLINK-3387,1 51125U 22005X   24055.27844483 -.00000314  00000-0 -16600-5 0  9997,2 51125  53.2190  40.9220 0001667  88.5519 271.5664 15.08837363116349,6917.888,95.438,540.907,538.6,0.0
51125.0,STARLINK-3387,PAYLOAD,2024-02-24 22:34:48,15.08839869,0.0001598,53.2181,37.9472,89.5124,270.6052,8.8664e-05,1.123e-05,0.0,0 STARLINK-3387,1 51125U 22005X   24055.94084485  .00001123  00000-0  88664-4 0  9994,2 51125  53.2181  37.9472 0001598  89.5124 270.6052 15.08839869116445,6917.881,95.438,540.851,538.64,0.0
51125.0,STARLINK-3387,PAYLOAD,2024-02-25 04:56:21,15.08847887,0.0001345,53.2166,36.7583,89.6394,270.4752,0.00021323,3.108e-05,0.0,0 STARLINK-3387,1 51125U 22005X   24056.20580024  .00003108  00000-0  21323-3 0  9997,2 51125  53.2166  36.7583 0001345  89.6394 270.4752 15.08847887117601,6917.856,95.437,540.652,538.791,0.0
51125.0,STARLINK-3387,PAYLOAD,2024-02-25 16:04:02,15.08851862,0.000127,53.2169,34.6772,95.1549,264.9588,0.000235,3.455e-05,0.0,0 STARLINK-3387,1 51125U 22005X   24056.66947731  .00003455  00000-0  23500-3 0  9993,2 51125  53.2169  34.6772 0001270  95.1549 264.9588 15.08851862116558,6917.844,95.437,540.588,538.831,0.0
51125.0,STARLINK-3387,PAYLOAD,2024-02-26 04:47:08,15.08846284,0.0001335,53.219,32.2944,111.4728,248.6407,0.00036554,5.535e-05,0.0,0 STARLINK-3387,1 51125U 22005X   24057.19939926  .00005535  00000-0  36554-3 0  9993,2 51125  53.2190  32.2944 0001335 111.4728 248.6407 15.08846284117754,6917.861,95.437,540.65,538.803,0.0
51125.0,STARLINK-3387,PAYLOAD,2024-02-26 22:16:23,15.08838867,0.0001242,53.2167,29.0275,86.3388,273.7746,5.1307e-05,5.29e-06,0.0,0 STARLINK-3387,1 51125U 22005X   24057.92804452  .00000529  00000-0  51307-4 0  9991,2 51125  53.2167  29.0275 0001242  86.3388 273.7746 15.08838867116749,6917.884,95.438,540.608,538.89,0.0
51125.0,STARLINK-3387,PAYLOAD,2024-02-27 03:02:32,15.08836124,0.0001317,53.2173,28.1346,83.7184,276.3958,1.1268e-05,-1.09e-06,0.0,0 STARLINK-3387,1 51125U 22005X   24058.12676677 -.00000109  00000-0  11268-4 0  9997,2 51125  53.2173  28.1346 0001317  83.7184 276.3958 15.08836124117898,6917.892,95.438,540.668,538.846,0.0
51125.0,STARLINK-3387,PAYLOAD,2024-02-27 07:48:41,15.08838713,0.0001536,53.2195,27.2394,104.5671,255.5492,4.3104e-05,3.98e-06,0.0,0 STARLINK-3387,1 51125U 22005X   24058.32548517  .00000398  00000-0  43104-4 0  9993,2 51125  53.2195  27.2394 0001536 104.5671 255.5492 15.08838713116809,6917.884,95.438,540.812,538.687,0.0
51125.0,STARLINK-3387,PAYLOAD,2024-02-27 22:07:10,15.08837855,0.0001669,53.2194,24.5629,120.4186,239.6971,6.2188e-05,7.02e-06,0.0,0 STARLINK-3387,1 51125U 22005X   24058.92164571  .00000702  00000-0  62188-4 0  9995,2 51125  53.2194  24.5629 0001669 120.4186 239.6971 15.08837855116894,6917.887,95.438,540.907,538.597,0.0
51125.0,STARLINK-3387,PAYLOAD,2024-02-28 04:28:42,15.08847034,0.0001338,53.2176,23.3768,94.9664,265.1481,0.00023171,3.402e-05,0.0,0 STARLINK-3387,1 51125U 22005X   24059.18660289  .00003402  00000-0  23171-3 0  9999,2 51125  53.2176  23.3768 0001338  94.9664 265.1481 15.08847034118054,6917.859,95.437,540.649,538.798,0.0
51125.0,STARLINK-3387,PAYLOAD,2024-02-28 14:01:01,15.08843782,0.0001312,53.2185,21.5946,97.992,262.1221,5.9565e-05,6.6e-06,0.0,0 STARLINK-3387,1 51125U 22005X   24059.58404215  .00000660  00000-0  59565-4 0  9998,2 51125  53.2185  21.5946 0001312  97.9920 262.1221 15.08843782116998,6917.869,95.437,540.641,538.826,0.0
51125.0,STARLINK-3387,PAYLOAD,2024-02-28 20:22:34,15.08836054,0.0001516,53.2199,20.4076,98.0947,262.0218,0.00017771,2.541e-05,0.0,0 STARLINK-3387,1 51125U 22005X   24059.84900934  .00002541  00000-0  17771-3 0  9998,2 51125  53.2199  20.4076 0001516  98.0947 262.0218 15.08836054118151,6917.892,95.438,540.806,538.709,0.0
51125.0,STARLINK-3387,PAYLOAD,2024-02-28 21:57:57,15.08833436,0.0001828,53.2197,20.1074,102.8035,257.3161,0.00012434,1.691e-05,0.0,0 STARLINK-3387,1 51125U 22005X   24059.91525294  .00001691  00000-0  12434-3 0  9994,2 51125  53.2197  20.1074 0001828 102.8035 257.3161 15.08833436117044,6917.9,95.438,541.03,538.501,0.0
